{
  "type": "FeatureCollection",
  "features": [
    {
      "type": "Feature",
      "properties": {
        "norad_id": 38091,
        "name": "BEIDOU-2 G5 (C05)",
        "group": "gnss",
        "lat": -1.228031112028478,
        "lon": -86.36804832371621,
        "alt_km": 35736.69547878468,
        "timestamp": "2025-12-11T08:58:27.365180+00:00",
        "meta_object_name": "BEIDOU-2 G5 (C05)",
        "meta_object_id": "2012-008A",
        "meta_epoch": "2025-12-11T03:31:04.703808",
        "meta_mean_motion": 1.00274948,
        "meta_eccentricity": 0.0012575,
        "meta_inclination": 3.1056,
        "meta_ra_of_asc_node": 70.7117,
        "meta_arg_of_pericenter": 226.7505,
        "meta_mean_anomaly": 254.1865,
        "meta_ephemeris_type": 0,
        "meta_classification_type": "U",
        "meta_norad_cat_id": 38091,
        "meta_element_set_no": 999,
        "meta_rev_at_epoch": 5048,
        "meta_bstar": 0,
        "meta_mean_motion_dot": 6.2e-07,
        "meta_mean_motion_ddot": 0,
        "tle_line1": "1 38091U 12008A   25345.14658222  .00000062  00000+0  00000+0 0  9997",
        "tle_line2": "2 38091   3.1056  70.7117 0012575 226.7505 254.1865  1.00274948 50481"
      },
      "geometry": {
        "type": "Point",
        "coordinates": [
          -86.36804832371621,
          -1.228031112028478
        ]
      }
    },
    {
      "type": "Feature",
      "properties": {
        "norad_id": 38250,
        "name": "BEIDOU-2 M3 (C11)",
        "group": "gnss",
        "lat": 54.81457750764995,
        "lon": 24.84302529192514,
        "alt_km": 21588.420088988685,
        "timestamp": "2025-12-11T08:58:27.365193+00:00",
        "meta_object_name": "BEIDOU-2 M3 (C11)",
        "meta_object_id": "2012-018A",
        "meta_epoch": "2025-12-09T02:31:53.071968",
        "meta_mean_motion": 1.86229533,
        "meta_eccentricity": 0.00244707,
        "meta_inclination": 55.9232,
        "meta_ra_of_asc_node": 311.2798,
        "meta_arg_of_pericenter": 273.7022,
        "meta_mean_anomaly": 86.0063,
        "meta_ephemeris_type": 0,
        "meta_classification_type": "U",
        "meta_norad_cat_id": 38250,
        "meta_element_set_no": 999,
        "meta_rev_at_epoch": 9240,
        "meta_bstar": 0,
        "meta_mean_motion_dot": -7.5e-07,
        "meta_mean_motion_ddot": 0,
        "tle_line1": "1 38250U 12018A   25343.10547537 -.00000075  00000+0  00000+0 0  9990",
        "tle_line2": "2 38250  55.9232 311.2798 0024470 273.7022  86.0063  1.86229533 92404"
      },
      "geometry": {
        "type": "Point",
        "coordinates": [
          24.84302529192514,
          54.81457750764995
        ]
      }
    },
    {
      "type": "Feature",
      "properties": {
        "norad_id": 38251,
        "name": "BEIDOU-2 M4 (C12)",
        "group": "gnss",
        "lat": 41.88576030999911,
        "lon": 92.90063003595797,
        "alt_km": 21561.235920137548,
        "timestamp": "2025-12-11T08:58:27.365205+00:00",
        "meta_object_name": "BEIDOU-2 M4 (C12)",
        "meta_object_id": "2012-018B",
        "meta_epoch": "2025-12-09T00:54:02.015712",
        "meta_mean_motion": 1.86229239,
        "meta_eccentricity": 0.001562,
        "meta_inclination": 55.8247,
        "meta_ra_of_asc_node": 310.5113,
        "meta_arg_of_pericenter": 276.8164,
        "meta_mean_anomaly": 82.9941,
        "meta_ephemeris_type": 0,
        "meta_classification_type": "U",
        "meta_norad_cat_id": 38251,
        "meta_element_set_no": 999,
        "meta_rev_at_epoch": 9240,
        "meta_bstar": 0,
        "meta_mean_motion_dot": -7.4e-07,
        "meta_mean_motion_ddot": 0,
        "tle_line1": "1 38251U 12018B   25343.03752333 -.00000074  00000+0  00000+0 0  9994",
        "tle_line2": "2 38251  55.8247 310.5113 0015620 276.8164  82.9941  1.86229239 92404"
      },
      "geometry": {
        "type": "Point",
        "coordinates": [
          92.90063003595797,
          41.88576030999911
        ]
      }
    },
    {
      "type": "Feature",
      "properties": {
        "norad_id": 38652,
        "name": "SES-5 (EGNOS/PRN 136)",
        "group": "gnss",
        "lat": -0.0705850459243778,
        "lon": -140.0838229287433,
        "alt_km": 35778.990794213896,
        "timestamp": "2025-12-11T08:58:27.365218+00:00",
        "meta_object_name": "SES-5 (EGNOS/PRN 136)",
        "meta_object_id": "2012-036A",
        "meta_epoch": "2025-12-10T21:35:38.731776",
        "meta_mean_motion": 1.0027175,
        "meta_eccentricity": 0.0002055,
        "meta_inclination": 0.0558,
        "meta_ra_of_asc_node": 306.0236,
        "meta_arg_of_pericenter": 309.3819,
        "meta_mean_anomaly": 153.3584,
        "meta_ephemeris_type": 0,
        "meta_classification_type": "U",
        "meta_norad_cat_id": 38652,
        "meta_element_set_no": 999,
        "meta_rev_at_epoch": 4257,
        "meta_bstar": 0,
        "meta_mean_motion_dot": 3.9e-07,
        "meta_mean_motion_ddot": 0,
        "tle_line1": "1 38652U 12036A   25344.89975384  .00000039  00000+0  00000+0 0  9997",
        "tle_line2": "2 38652   0.0558 306.0236 0002055 309.3819 153.3584  1.00271750 42579"
      },
      "geometry": {
        "type": "Point",
        "coordinates": [
          -140.0838229287433,
          -0.0705850459243778
        ]
      }
    },
    {
      "type": "Feature",
      "properties": {
        "norad_id": 38775,
        "name": "BEIDOU-2 M6 (C14)",
        "group": "gnss",
        "lat": -32.24762160377871,
        "lon": 44.334236987325646,
        "alt_km": 21504.119068740514,
        "timestamp": "2025-12-11T08:58:27.365230+00:00",
        "meta_object_name": "BEIDOU-2 M6 (C14)",
        "meta_object_id": "2012-050B",
        "meta_epoch": "2025-12-09T06:50:59.454240",
        "meta_mean_motion": 1.86230769,
        "meta_eccentricity": 0.00110803,
        "meta_inclination": 56.3755,
        "meta_ra_of_asc_node": 69.1821,
        "meta_arg_of_pericenter": 345.0946,
        "meta_mean_anomaly": 14.8952,
        "meta_ephemeris_type": 0,
        "meta_classification_type": "U",
        "meta_norad_cat_id": 38775,
        "meta_element_set_no": 999,
        "meta_rev_at_epoch": 8977,
        "meta_bstar": 0,
        "meta_mean_motion_dot": -4.8e-07,
        "meta_mean_motion_ddot": 0,
        "tle_line1": "1 38775U 12050B   25343.28541035 -.00000048  00000+0  00000+0 0  9994",
        "tle_line2": "2 38775  56.3755  69.1821 0011080 345.0946  14.8952  1.86230769 89773"
      },
      "geometry": {
        "type": "Point",
        "coordinates": [
          44.334236987325646,
          -32.24762160377871
        ]
      }
    },
    {
      "type": "Feature",
      "properties": {
        "norad_id": 38779,
        "name": "GSAT-10 (GAGAN/PRN 128)",
        "group": "gnss",
        "lat": 0.03689936891728516,
        "lon": -62.05172090761932,
        "alt_km": 35795.651603149476,
        "timestamp": "2025-12-11T08:58:27.365242+00:00",
        "meta_object_name": "GSAT-10 (GAGAN/PRN 128)",
        "meta_object_id": "2012-051B",
        "meta_epoch": "2025-12-11T03:38:04.034112",
        "meta_mean_motion": 1.00273319,
        "meta_eccentricity": 0.0002468,
        "meta_inclination": 0.0934,
        "meta_ra_of_asc_node": 266.3951,
        "meta_arg_of_pericenter": 227.6847,
        "meta_mean_anomaly": 83.5472,
        "meta_ephemeris_type": 0,
        "meta_classification_type": "U",
        "meta_norad_cat_id": 38779,
        "meta_element_set_no": 999,
        "meta_rev_at_epoch": 4821,
        "meta_bstar": 0,
        "meta_mean_motion_dot": -1.59e-06,
        "meta_mean_motion_ddot": 0,
        "tle_line1": "1 38779U 12051B   25345.15143558 -.00000159  00000+0  00000+0 0  9998",
        "tle_line2": "2 38779   0.0934 266.3951 0002468 227.6847  83.5472  1.00273319 48210"
      },
      "geometry": {
        "type": "Point",
        "coordinates": [
          -62.05172090761932,
          0.03689936891728516
        ]
      }
    },
    {
      "type": "Feature",
      "properties": {
        "norad_id": 38833,
        "name": "GPS BIIF-3  (PRN 24)",
        "group": "gnss",
        "lat": 10.902712339778242,
        "lon": 159.46970832035916,
        "alt_km": 19878.487814398435,
        "timestamp": "2025-12-11T08:58:27.365257+00:00",
        "meta_object_name": "GPS BIIF-3  (PRN 24)",
        "meta_object_id": "2012-053A",
        "meta_epoch": "2025-12-09T20:38:00.572640",
        "meta_mean_motion": 2.00564945,
        "meta_eccentricity": 0.0175755,
        "meta_inclination": 53.5569,
        "meta_ra_of_asc_node": 151.3565,
        "meta_arg_of_pericenter": 63.953,
        "meta_mean_anomaly": 297.8432,
        "meta_ephemeris_type": 0,
        "meta_classification_type": "U",
        "meta_norad_cat_id": 38833,
        "meta_element_set_no": 999,
        "meta_rev_at_epoch": 9564,
        "meta_bstar": 0,
        "meta_mean_motion_dot": 6.8e-07,
        "meta_mean_motion_ddot": 0,
        "tle_line1": "1 38833U 12053A   25343.85972885  .00000068  00000+0  00000+0 0  9997",
        "tle_line2": "2 38833  53.5569 151.3565 0175755  63.9530 297.8432  2.00564945 95646"
      },
      "geometry": {
        "type": "Point",
        "coordinates": [
          159.46970832035916,
          10.902712339778242
        ]
      }
    }
  ]
}